STARLINK-34178          
1 64096U 25110A   26063.36172113  .00043938  00000+0  14864-2 0  9996
2 64096  53.1612  51.7303 0001453  69.1571 290.9585 15.30210332 45069
STARLINK-34174          
1 64097U 25110B   26063.35539157  .00040916  00000+0  13857-2 0  9995
2 64097  53.1613  51.6960 0001517  65.7685 294.3474 15.30205844 45065
STARLINK-34146          
1 64098U 25110C   26063.67563179  .00030588  00000+0  10401-2 0  9998
2 64098  53.1605  50.1376 0001706  93.8037 266.3158 15.30217523 45116
STARLINK-34074          
1 64099U 25110D   26063.23636700  .00025286  00000+0  86267-3 0  9995
2 64099  53.1606  52.3727 0001315 114.9941 245.1196 15.30209939 45048
STARLINK-34082          
1 64100U 25110E   26063.36488897  .00057074  00000+0  19240-2 0  9990
2 64100  53.1609  51.7541 0001537  74.2571 285.8599 15.30205764 45066
STARLINK-34072          
1 64101U 25110F   26063.35855583  .00054728  00000+0  18458-2 0  9993
2 64101  53.1608  51.7157 0001233  86.1589 273.9553 15.30209378 45066
STARLINK-34104          
1 64102U 25110G   26063.67879920  .00026920  00000+0  91749-3 0  9998
2 64102  53.1619  50.1567 0001429  89.1130 271.0035 15.30208721 45110
STARLINK-34179          
1 64103U 25110H   26063.37016023  .00043958  00000+0  14877-2 0  9999
2 64103  53.1606  51.7862 0001253  81.0912 279.0231 15.30196804 45064
STARLINK-34176          
1 64104U 25110J   26063.36383209  .00053534  00000+0  18062-2 0  9993
2 64104  53.1611  51.7456 0001352  76.1497 283.9654 15.30207035 45065
STARLINK-33949          
1 64105U 25110K   26063.36066600  .00043925  00000+0  14860-2 0  9992
2 64105  53.1607  51.7267 0001356  70.4524 289.6624 15.30209436 45060
STARLINK-33970          
1 64106U 25110L   26063.28585489  .00024444  00000+0  83465-3 0  9998
2 64106  53.1614  51.9725 0001755  66.8365 293.2821 15.30201616 45056
STARLINK-33912          
1 64107U 25110M   26063.34694522  .00037901  00000+0  12852-2 0  9998
2 64107  53.1607  51.6390 0001359  78.2122 281.9031 15.30202789 45062
STARLINK-34156          
1 64108U 25110N   26063.33744885  .00019195  00000+0  65865-3 0  9994
2 64108  53.1596  51.5759 0001167  89.7033 270.4101 15.30193340 45066
STARLINK-34124          
1 64109U 25110P   26063.67035553  .00029741  00000+0  10118-2 0  9995
2 64109  53.1602  50.0976 0001686  92.2750 267.8444 15.30213457 45119
STARLINK-34145          
1 64110U 25110Q   26063.35433532  .00044255  00000+0  14970-2 0  9998
2 64110  53.1616  51.6847 0001569  60.4729 299.6428 15.30209343 45061
STARLINK-34148          
1 64111U 25110R   26063.66085652  .00032279  00000+0  10969-2 0  9996
2 64111  53.1604  50.0334 0001635  82.4553 277.6633 15.30209832 45119
