[{"OBJECT_NAME":"STARLINK-34178","OBJECT_ID":"2025-110A","EPOCH":"2026-03-04T08:40:52.705632","MEAN_MOTION":15.30210332,"ECCENTRICITY":0.00014535,"INCLINATION":53.1612,"RA_OF_ASC_NODE":51.7303,"ARG_OF_PERICENTER":69.1571,"MEAN_ANOMALY":290.9585,"EPHEMERIS_TYPE":0,"CLASSIFICATION_TYPE":"U","NORAD_CAT_ID":64096,"ELEMENT_SET_NO":999,"REV_AT_EPOCH":4506,"BSTAR":0.0014863802,"MEAN_MOTION_DOT":0.00043938,"MEAN_MOTION_DDOT":0},{"OBJECT_NAME":"STARLINK-34174","OBJECT_ID":"2025-110B","EPOCH":"2026-03-04T08:31:45.831648","MEAN_MOTION":15.30205844,"ECCENTRICITY":0.00015174,"INCLINATION":53.1613,"RA_OF_ASC_NODE":51.696,"ARG_OF_PERICENTER":65.7685,"MEAN_ANOMALY":294.3474,"EPHEMERIS_TYPE":0,"CLASSIFICATION_TYPE":"U","NORAD_CAT_ID":64097,"ELEMENT_SET_NO":999,"REV_AT_EPOCH":4506,"BSTAR":0.0013857212,"MEAN_MOTION_DOT":0.00040916,"MEAN_MOTION_DDOT":0},{"OBJECT_NAME":"STARLINK-34146","OBJECT_ID":"2025-110C","EPOCH":"2026-03-04T16:12:54.586656","MEAN_MOTION":15.30217523,"ECCENTRICITY":0.0001706,"INCLINATION":53.1605,"RA_OF_ASC_NODE":50.1376,"ARG_OF_PERICENTER":93.8037,"MEAN_ANOMALY":266.3158,"EPHEMERIS_TYPE":0,"CLASSIFICATION_TYPE":"U","NORAD_CAT_ID":64098,"ELEMENT_SET_NO":999,"REV_AT_EPOCH":4511,"BSTAR":0.0010401,"MEAN_MOTION_DOT":0.00030588,"MEAN_MOTION_DDOT":0},{"OBJECT_NAME":"STARLINK-34074","OBJECT_ID":"2025-110D","EPOCH":"2026-03-04T05:40:22.108800","MEAN_MOTION":15.30209939,"ECCENTRICITY":0.00013155,"INCLINATION":53.1606,"RA_OF_ASC_NODE":52.3727,"ARG_OF_PERICENTER":114.9941,"MEAN_ANOMALY":245.1196,"EPHEMERIS_TYPE":0,"CLASSIFICATION_TYPE":"U","NORAD_CAT_ID":64099,"ELEMENT_SET_NO":999,"REV_AT_EPOCH":4504,"BSTAR":0.00086267273,"MEAN_MOTION_DOT":0.00025286,"MEAN_MOTION_DDOT":0},{"OBJECT_NAME":"STARLINK-34082","OBJECT_ID":"2025-110E","EPOCH":"2026-03-04T08:45:26.407008","MEAN_MOTION":15.30205764,"ECCENTRICITY":0.00015372,"INCLINATION":53.1609,"RA_OF_ASC_NODE":51.7541,"ARG_OF_PERICENTER":74.2571,"MEAN_ANOMALY":285.8599,"EPHEMERIS_TYPE":0,"CLASSIFICATION_TYPE":"U","NORAD_CAT_ID":64100,"ELEMENT_SET_NO":999,"REV_AT_EPOCH":4506,"BSTAR":0.0019240217,"MEAN_MOTION_DOT":0.00057074,"MEAN_MOTION_DDOT":0},{"OBJECT_NAME":"STARLINK-34072","OBJECT_ID":"2025-110F","EPOCH":"2026-03-04T08:36:19.223712","MEAN_MOTION":15.30209378,"ECCENTRICITY":0.00012334,"INCLINATION":53.1608,"RA_OF_ASC_NODE":51.7157,"ARG_OF_PERICENTER":86.1589,"MEAN_ANOMALY":273.9553,"EPHEMERIS_TYPE":0,"CLASSIFICATION_TYPE":"U","NORAD_CAT_ID":64101,"ELEMENT_SET_NO":999,"REV_AT_EPOCH":4506,"BSTAR":0.0018458335,"MEAN_MOTION_DOT":0.00054728,"MEAN_MOTION_DDOT":0},{"OBJECT_NAME":"STARLINK-34104","OBJECT_ID":"2025-110G","EPOCH":"2026-03-04T16:17:28.250880","MEAN_MOTION":15.30208721,"ECCENTRICITY":0.0001429,"INCLINATION":53.1619,"RA_OF_ASC_NODE":50.1567,"ARG_OF_PERICENTER":89.113,"MEAN_ANOMALY":271.0035,"EPHEMERIS_TYPE":0,"CLASSIFICATION_TYPE":"U","NORAD_CAT_ID":64102,"ELEMENT_SET_NO":999,"REV_AT_EPOCH":4511,"BSTAR":0.00091749,"MEAN_MOTION_DOT":0.0002692,"MEAN_MOTION_DDOT":0},{"OBJECT_NAME":"STARLINK-34179","OBJECT_ID":"2025-110H","EPOCH":"2026-03-04T08:53:01.843872","MEAN_MOTION":15.30196804,"ECCENTRICITY":0.0001253,"INCLINATION":53.1606,"RA_OF_ASC_NODE":51.7862,"ARG_OF_PERICENTER":81.0912,"MEAN_ANOMALY":279.0231,"EPHEMERIS_TYPE":0,"CLASSIFICATION_TYPE":"U","NORAD_CAT_ID":64103,"ELEMENT_SET_NO":999,"REV_AT_EPOCH":4506,"BSTAR":0.0014876835,"MEAN_MOTION_DOT":0.00043958,"MEAN_MOTION_DDOT":0},{"OBJECT_NAME":"STARLINK-34176","OBJECT_ID":"2025-110J","EPOCH":"2026-03-04T08:43:55.092576","MEAN_MOTION":15.30207035,"ECCENTRICITY":0.00013521,"INCLINATION":53.1611,"RA_OF_ASC_NODE":51.7456,"ARG_OF_PERICENTER":76.1497,"MEAN_ANOMALY":283.9654,"EPHEMERIS_TYPE":0,"CLASSIFICATION_TYPE":"U","NORAD_CAT_ID":64104,"ELEMENT_SET_NO":999,"REV_AT_EPOCH":4506,"BSTAR":0.0018062262,"MEAN_MOTION_DOT":0.00053534,"MEAN_MOTION_DDOT":0},{"OBJECT_NAME":"STARLINK-33949","OBJECT_ID":"2025-110K","EPOCH":"2026-03-04T08:39:21.542400","MEAN_MOTION":15.30209436,"ECCENTRICITY":0.00013562,"INCLINATION":53.1607,"RA_OF_ASC_NODE":51.7267,"ARG_OF_PERICENTER":70.4524,"MEAN_ANOMALY":289.6624,"EPHEMERIS_TYPE":0,"CLASSIFICATION_TYPE":"U","NORAD_CAT_ID":64105,"ELEMENT_SET_NO":999,"REV_AT_EPOCH":4506,"BSTAR":0.0014860067,"MEAN_MOTION_DOT":0.00043925,"MEAN_MOTION_DDOT":0},{"OBJECT_NAME":"STARLINK-33970","OBJECT_ID":"2025-110L","EPOCH":"2026-03-04T06:51:37.862496","MEAN_MOTION":15.30201616,"ECCENTRICITY":0.0001755,"INCLINATION":53.1614,"RA_OF_ASC_NODE":51.9725,"ARG_OF_PERICENTER":66.8365,"MEAN_ANOMALY":293.2821,"EPHEMERIS_TYPE":0,"CLASSIFICATION_TYPE":"U","NORAD_CAT_ID":64106,"ELEMENT_SET_NO":999,"REV_AT_EPOCH":4505,"BSTAR":0.0008346529,"MEAN_MOTION_DOT":0.00024444,"MEAN_MOTION_DDOT":0},{"OBJECT_NAME":"STARLINK-33912","OBJECT_ID":"2025-110M","EPOCH":"2026-03-04T08:19:36.067008","MEAN_MOTION":15.30202789,"ECCENTRICITY":0.00013591,"INCLINATION":53.1607,"RA_OF_ASC_NODE":51.639,"ARG_OF_PERICENTER":78.2122,"MEAN_ANOMALY":281.9031,"EPHEMERIS_TYPE":0,"CLASSIFICATION_TYPE":"U","NORAD_CAT_ID":64107,"ELEMENT_SET_NO":999,"REV_AT_EPOCH":4506,"BSTAR":0.0012851541,"MEAN_MOTION_DOT":0.00037901,"MEAN_MOTION_DDOT":0},{"OBJECT_NAME":"STARLINK-34156","OBJECT_ID":"2025-110N","EPOCH":"2026-03-04T08:05:55.580640","MEAN_MOTION":15.3019334,"ECCENTRICITY":0.00011675,"INCLINATION":53.1596,"RA_OF_ASC_NODE":51.5759,"ARG_OF_PERICENTER":89.7033,"MEAN_ANOMALY":270.4101,"EPHEMERIS_TYPE":0,"CLASSIFICATION_TYPE":"U","NORAD_CAT_ID":64108,"ELEMENT_SET_NO":999,"REV_AT_EPOCH":4506,"BSTAR":0.00065865281,"MEAN_MOTION_DOT":0.00019195,"MEAN_MOTION_DDOT":0},{"OBJECT_NAME":"STARLINK-34124","OBJECT_ID":"2025-110P","EPOCH":"2026-03-04T16:05:18.717792","MEAN_MOTION":15.30213457,"ECCENTRICITY":0.0001686,"INCLINATION":53.1602,"RA_OF_ASC_NODE":50.0976,"ARG_OF_PERICENTER":92.275,"MEAN_ANOMALY":267.8444,"EPHEMERIS_TYPE":0,"CLASSIFICATION_TYPE":"U","NORAD_CAT_ID":64109,"ELEMENT_SET_NO":999,"REV_AT_EPOCH":4511,"BSTAR":0.0010118,"MEAN_MOTION_DOT":0.00029741,"MEAN_MOTION_DDOT":0},{"OBJECT_NAME":"STARLINK-34145","OBJECT_ID":"2025-110Q","EPOCH":"2026-03-04T08:30:14.571648","MEAN_MOTION":15.30209343,"ECCENTRICITY":0.00015697,"INCLINATION":53.1616,"RA_OF_ASC_NODE":51.6847,"ARG_OF_PERICENTER":60.4729,"MEAN_ANOMALY":299.6428,"EPHEMERIS_TYPE":0,"CLASSIFICATION_TYPE":"U","NORAD_CAT_ID":64110,"ELEMENT_SET_NO":999,"REV_AT_EPOCH":4506,"BSTAR":0.0014969893,"MEAN_MOTION_DOT":0.00044255,"MEAN_MOTION_DDOT":0},{"OBJECT_NAME":"STARLINK-34148","OBJECT_ID":"2025-110R","EPOCH":"2026-03-04T15:51:38.003328","MEAN_MOTION":15.30209832,"ECCENTRICITY":0.0001635,"INCLINATION":53.1604,"RA_OF_ASC_NODE":50.0334,"ARG_OF_PERICENTER":82.4553,"MEAN_ANOMALY":277.6633,"EPHEMERIS_TYPE":0,"CLASSIFICATION_TYPE":"U","NORAD_CAT_ID":64111,"ELEMENT_SET_NO":999,"REV_AT_EPOCH":4511,"BSTAR":0.0010969,"MEAN_MOTION_DOT":0.00032279,"MEAN_MOTION_DDOT":0}]
